{"type": "FeatureCollection", "features": [ {"type": "Feature", "properties": {"norad_id": 30272, "name": "FENGYUN 1C DEB", "group": "fengyun-1c-debris", "lat": -79.32863204860402, "lon": -177.14046878511652, "alt_km": 886.9698982968102, "timestamp": "2025-12-17T10:52:54.628440+00:00", "meta": {"OBJECT_NAME": "FENGYUN 1C DEB", "OBJECT_ID": "1999-025YH", "EPOCH": "2025-12-16T09:52:37.002432", "MEAN_MOTION": 14.14728738, "ECCENTRICITY": 0.00507744, "INCLINATION": 98.9015, "RA_OF_ASC_NODE": 58.0952, "ARG_OF_PERICENTER": 93.5605, "MEAN_ANOMALY": 267.1377, "EPHEMERIS_TYPE": 0, "CLASSIFICATION_TYPE": "U", "NORAD_CAT_ID": 30272, "ELEMENT_SET_NO": 999, "REV_AT_EPOCH": 96908, "BSTAR": 0.0010028098, "MEAN_MOTION_DOT": 1.911e-05, "MEAN_MOTION_DDOT": 0}, "tle": {"line1": "1 30272U 99025YH  25350.41153938  .00001911  00000+0  10028-2 0  9992", "line2": "2 30272  98.9015  58.0952 0050774  93.5605 267.1377 14.14728738969088"}}, "geometry": {"type": "Point", "coordinates": [-177.14046878511652, -79.32863204860402]}}, {"type": "Feature", "properties": {"norad_id": 30273, "name": "FENGYUN 1C DEB", "group": "fengyun-1c-debris", "lat": 36.49399326152918, "lon": -0.733307433333797, "alt_km": 923.3650148017796, "timestamp": "2025-12-17T10:52:54.628450+00:00", "meta": {"OBJECT_NAME": "FENGYUN 1C DEB", "OBJECT_ID": "1999-025YJ", "EPOCH": "2025-12-16T13:04:42.538656", "MEAN_MOTION": 14.0266614, "ECCENTRICITY": 0.00604015, "INCLINATION": 98.8403, "RA_OF_ASC_NODE": 4.9962, "ARG_OF_PERICENTER": 238.7515, "MEAN_ANOMALY": 253.2204, "EPHEMERIS_TYPE": 0, "CLASSIFICATION_TYPE": "U", "NORAD_CAT_ID": 30273, "ELEMENT_SET_NO": 999, "REV_AT_EPOCH": 96582, "BSTAR": 0.00039310598, "MEAN_MOTION_DOT": 5.73e-06, "MEAN_MOTION_DDOT": 0}, "tle": {"line1": "1 30273U 99025YJ  25350.54493679  .00000573  00000+0  39311-3 0  9996", "line2": "2 30273  98.8403   4.9962 0060401 238.7515 253.2204 14.02666140965829"}}, "geometry": {"type": "Point", "coordinates": [-0.733307433333797, 36.49399326152918]}}, {"type": "Feature", "properties": {"norad_id": 30274, "name": "FENGYUN 1C DEB", "group": "fengyun-1c-debris", "lat": -28.166156694290937, "lon": 125.66075691066092, "alt_km": 728.0517709203368, "timestamp": "2025-12-17T10:52:54.628460+00:00", "meta": {"OBJECT_NAME": "FENGYUN 1C DEB", "OBJECT_ID": "1999-025YK", "EPOCH": "2025-12-16T15:12:51.725664", "MEAN_MOTION": 14.51709262, "ECCENTRICITY": 0.00048163, "INCLINATION": 99.3015, "RA_OF_ASC_NODE": 119.7202, "ARG_OF_PERICENTER": 202.98, "MEAN_ANOMALY": 168.216, "EPHEMERIS_TYPE": 0, "CLASSIFICATION_TYPE": "U", "NORAD_CAT_ID": 30274, "ELEMENT_SET_NO": 999, "REV_AT_EPOCH": 98267, "BSTAR": 0.0019169427, "MEAN_MOTION_DOT": 7.652e-05, "MEAN_MOTION_DDOT": 0}, "tle": {"line1": "1 30274U 99025YK  25350.63393201  .00007652  00000+0  19169-2 0  9990", "line2": "2 30274  99.3015 119.7202 0004816 202.9800 168.2160 14.51709262982670"}}, "geometry": {"type": "Point", "coordinates": [125.66075691066092, -28.166156694290937]}}, {"type": "Feature", "properties": {"norad_id": 30275, "name": "FENGYUN 1C DEB", "group": "fengyun-1c-debris", "lat": 4.680573026805317, "lon": -103.49777426129592, "alt_km": 714.7813006612942, "timestamp": "2025-12-17T10:52:54.628471+00:00", "meta": {"OBJECT_NAME": "FENGYUN 1C DEB", "OBJECT_ID": "1999-025YL", "EPOCH": "2025-12-16T04:26:20.048064", "MEAN_MOTION": 14.4534838, "ECCENTRICITY": 0.00398883, "INCLINATION": 98.6286, "RA_OF_ASC_NODE": 74.5011, "ARG_OF_PERICENTER": 176.5694, "MEAN_ANOMALY": 242.2454, "EPHEMERIS_TYPE": 0, "CLASSIFICATION_TYPE": "U", "NORAD_CAT_ID": 30275, "ELEMENT_SET_NO": 999, "REV_AT_EPOCH": 98134, "BSTAR": 0.0016012464, "MEAN_MOTION_DOT": 5.64e-05, "MEAN_MOTION_DDOT": 0}, "tle": {"line1": "1 30275U 99025YL  25350.18495426  .00005640  00000+0  16012-2 0  9992", "line2": "2 30275  98.6286  74.5011 0039888 176.5694 242.2454 14.45348380981348"}}, "geometry": {"type": "Point", "coordinates": [-103.49777426129592, 4.680573026805317]}}, {"type": "Feature", "properties": {"norad_id": 30276, "name": "FENGYUN 1C DEB", "group": "fengyun-1c-debris", "lat": 12.22466397556729, "lon": -114.97948667334109, "alt_km": 802.5937884312452, "timestamp": "2025-12-17T10:52:54.628481+00:00", "meta": {"OBJECT_NAME": "FENGYUN 1C DEB", "OBJECT_ID": "1999-025YM", "EPOCH": "2025-12-16T22:19:22.247904", "MEAN_MOTION": 14.27051504, "ECCENTRICITY": 0.00246644, "INCLINATION": 98.859, "RA_OF_ASC_NODE": 62.5543, "ARG_OF_PERICENTER": 79.5328, "MEAN_ANOMALY": 280.863, "EPHEMERIS_TYPE": 0, "CLASSIFICATION_TYPE": "U", "NORAD_CAT_ID": 30276, "ELEMENT_SET_NO": 999, "REV_AT_EPOCH": 97590, "BSTAR": 0.00098818822, "MEAN_MOTION_DOT": 2.369e-05, "MEAN_MOTION_DDOT": 0}, "tle": {"line1": "1 30276U 99025YM  25350.93011861  .00002369  00000+0  98819-3 0  9994", "line2": "2 30276  98.8590  62.5543 0024664  79.5328 280.8630 14.27051504975906"}}, "geometry": {"type": "Point", "coordinates": [-114.97948667334109, 12.22466397556729]}}, {"type": "Feature", "properties": {"norad_id": 30277, "name": "FENGYUN 1C DEB", "group": "fengyun-1c-debris", "lat": 7.863076364708426, "lon": 60.886925897847696, "alt_km": 930.9279623169314, "timestamp": "2025-12-17T10:52:54.628491+00:00", "meta": {"OBJECT_NAME": "FENGYUN 1C DEB", "OBJECT_ID": "1999-025YN", "EPOCH": "2025-12-16T04:34:57.037152", "MEAN_MOTION": 14.13598236, "ECCENTRICITY": 0.0124117, "INCLINATION": 98.9734, "RA_OF_ASC_NODE": 60.8707, "ARG_OF_PERICENTER": 168.0941, "MEAN_ANOMALY": 259.4525, "EPHEMERIS_TYPE": 0, "CLASSIFICATION_TYPE": "U", "NORAD_CAT_ID": 30277, "ELEMENT_SET_NO": 999, "REV_AT_EPOCH": 96838, "BSTAR": 0.0008997076, "MEAN_MOTION_DOT": 1.782e-05, "MEAN_MOTION_DDOT": 0}, "tle": {"line1": "1 30277U 99025YN  25350.19093793  .00001782  00000+0  89971-3 0  9994", "line2": "2 30277  98.9734  60.8707 0124117 168.0941 259.4525 14.13598236968382"}}, "geometry": {"type": "Point", "coordinates": [60.886925897847696, 7.863076364708426]}}, {"type": "Feature", "properties": {"norad_id": 30279, "name": "FENGYUN 1C DEB", "group": "fengyun-1c-debris", "lat": -4.38472728472114, "lon": -72.9349771902961, "alt_km": 745.1129083266269, "timestamp": "2025-12-17T10:52:54.628501+00:00", "meta": {"OBJECT_NAME": "FENGYUN 1C DEB", "OBJECT_ID": "1999-025YQ", "EPOCH": "2025-12-16T20:01:20.447616", "MEAN_MOTION": 14.23116155, "ECCENTRICITY": 0.02198279, "INCLINATION": 99.1501, "RA_OF_ASC_NODE": 285.7132, "ARG_OF_PERICENTER": 61.0093, "MEAN_ANOMALY": 6.6573, "EPHEMERIS_TYPE": 0, "CLASSIFICATION_TYPE": "U", "NORAD_CAT_ID": 30279, "ELEMENT_SET_NO": 999, "REV_AT_EPOCH": 97669, "BSTAR": 0.00060370094, "MEAN_MOTION_DOT": 1.697e-05, "MEAN_MOTION_DDOT": 0}, "tle": {"line1": "1 30279U 99025YQ  25350.83426444  .00001697  00000+0  60370-3 0  9997", "line2": "2 30279  99.1501 285.7132 0219827  61.0093   6.6573 14.23116155976697"}}, "geometry": {"type": "Point", "coordinates": [-72.9349771902961, -4.38472728472114]}}, {"type": "Feature", "properties": {"norad_id": 30280, "name": "FENGYUN 1C DEB", "group": "fengyun-1c-debris", "lat": 66.09277781790773, "lon": -39.75284076513179, "alt_km": 913.8977474870535, "timestamp": "2025-12-17T10:52:54.628511+00:00", "meta": {"OBJECT_NAME": "FENGYUN 1C DEB", "OBJECT_ID": "1999-025YR", "EPOCH": "2025-12-16T22:50:29.304384", "MEAN_MOTION": 13.9833131, "ECCENTRICITY": 0.00802833, "INCLINATION": 98.775, "RA_OF_ASC_NODE": 340.1589, "ARG_OF_PERICENTER": 317.8259, "MEAN_ANOMALY": 104.9581, "EPHEMERIS_TYPE": 0, "CLASSIFICATION_TYPE": "U", "NORAD_CAT_ID": 30280, "ELEMENT_SET_NO": 999, "REV_AT_EPOCH": 96465, "BSTAR": 6.6063509e-05, "MEAN_MOTION_DOT": 5.5e-07, "MEAN_MOTION_DDOT": 0}, "tle": {"line1": "1 30280U 99025YR  25350.95172806  .00000055  00000+0  66064-4 0  9996", "line2": "2 30280  98.7750 340.1589 0080283 317.8259 104.9581 13.98331310964657"}}, "geometry": {"type": "Point", "coordinates": [-39.75284076513179, 66.09277781790773]}}, {"type": "Feature", "properties": {"norad_id": 30281, "name": "FENGYUN 1C DEB", "group": "fengyun-1c-debris", "lat": 45.260147845045466, "lon": 170.09116860182877, "alt_km": 853.5087520944589, "timestamp": "2025-12-17T10:52:54.628521+00:00", "meta": {"OBJECT_NAME": "FENGYUN 1C DEB", "OBJECT_ID": "1999-025YS", "EPOCH": "2025-12-16T22:35:20.442912", "MEAN_MOTION": 14.1047867, "ECCENTRICITY": 0.00280368, "INCLINATION": 98.7571, "RA_OF_ASC_NODE": 340.6439, "ARG_OF_PERICENTER": 224.8041, "MEAN_ANOMALY": 190.1285, "EPHEMERIS_TYPE": 0, "CLASSIFICATION_TYPE": "U", "NORAD_CAT_ID": 30281, "ELEMENT_SET_NO": 999, "REV_AT_EPOCH": 97280, "BSTAR": 0.00019487736, "MEAN_MOTION_DOT": 3.05e-06, "MEAN_MOTION_DDOT": 0}, "tle": {"line1": "1 30281U 99025YS  25350.94120883  .00000305  00000+0  19488-3 0  9999", "line2": "2 30281  98.7571 340.6439 0028036 224.8041 190.1285 14.10478670972802"}}, "geometry": {"type": "Point", "coordinates": [170.09116860182877, 45.260147845045466]}}, {"type": "Feature", "properties": {"norad_id": 30282, "name": "FENGYUN 1C DEB", "group": "fengyun-1c-debris", "lat": -70.5625559134381, "lon": 19.553123704032064, "alt_km": 780.4446997115274, "timestamp": "2025-12-17T10:52:54.628531+00:00", "meta": {"OBJECT_NAME": "FENGYUN 1C DEB", "OBJECT_ID": "1999-025YT", "EPOCH": "2025-12-16T23:33:45.794592", "MEAN_MOTION": 14.12981221, "ECCENTRICITY": 0.0210034, "INCLINATION": 98.5014, "RA_OF_ASC_NODE": 354.0273, "ARG_OF_PERICENTER": 349.9399, "MEAN_ANOMALY": 62.0265, "EPHEMERIS_TYPE": 0, "CLASSIFICATION_TYPE": "U", "NORAD_CAT_ID": 30282, "ELEMENT_SET_NO": 999, "REV_AT_EPOCH": 97411, "BSTAR": 0.00032306087, "MEAN_MOTION_DOT": 6.99e-06, "MEAN_MOTION_DDOT": 0}, "tle": {"line1": "1 30282U 99025YT  25350.98178003  .00000699  00000+0  32306-3 0  9991", "line2": "2 30282  98.5014 354.0273 0210034 349.9399  62.0265 14.12981221974118"}}, "geometry": {"type": "Point", "coordinates": [19.553123704032064, -70.5625559134381]}}]}